ORBCOMM FM115           
1 41186U 15081H   24137.65558234  .00002725  00000+0  58874-3 0  9990
2 41186  46.9967 122.9162 0000815 337.3384  22.7466 14.60699797449766
ORBCOMM FM108           
1 41187U 15081J   24138.47406395  .00001603  00000+0  39337-3 0  9999
2 41187  47.0024 173.5564 0003637 287.9090  72.1398 14.56618307449070
ORBCOMM FM117           
1 41188U 15081K   24138.37137407  .00001611  00000+0  39524-3 0  9991
2 41188  46.9996 172.9321 0004016 298.8575  61.1906 14.56592466449106
ORBCOMM FM116           
1 41189U 15081L   24138.63488997  .00003134  00000+0  73290-3 0  9994
2 41189  47.0007 261.5092 0001331  19.1336 340.9599 14.56634272447957
